OBJECT_NAME,OBJECT_ID,EPOCH,MEAN_MOTION,ECCENTRICITY,INCLINATION,RA_OF_ASC_NODE,ARG_OF_PERICENTER,MEAN_ANOMALY,EPHEMERIS_TYPE,CLASSIFICATION_TYPE,NORAD_CAT_ID,ELEMENT_SET_NO,REV_AT_EPOCH,BSTAR,MEAN_MOTION_DOT,MEAN_MOTION_DDOT
BEIDOU-2 G3,2010-024A,2026-06-27T19:03:01.016064,1.00271281,.00080791,4.5411,61.4761,356.1937,223.6638,0,U,36590,999,5887,0,-.128E-5,0
BADR-5,2010-025A,2026-06-27T22:55:04.516896,1.00267978,.00039919,0.0498,135.0054,52.6673,102.6636,0,U,36592,999,5332,0,.165E-5,0
COMS 1,2010-032A,2026-06-27T22:54:57.028608,0.99167183,.00119078,4.8320,75.2315,13.2513,201.8321,0,U,36744,999,5119,0,.21E-6,0
ARABSAT-5A,2010-032B,2026-06-27T22:55:04.516896,1.00272376,.00056495,0.0730,53.8100,59.6694,176.8292,0,U,36745,999,5875,0,.165E-5,0
ECHOSTAR 15,2010-034A,2026-06-27T15:21:49.908672,1.00272536,.00022261,0.0112,28.2558,54.2545,304.8825,0,U,36792,999,5842,0,.11E-6,0
BEIDOU-2 IGSO-1,2010-036A,2026-06-26T21:36:35.093088,1.00269877,.0059014,54.3050,162.8716,225.3100,318.5305,0,U,36828,999,5819,0,-.57E-6,0
NILESAT 201,2010-037A,2026-06-27T22:44:18.414240,1.00271550,.00052542,0.0378,126.9381,354.4856,128.7040,0,U,36830,999,5848,0,-.46E-6,0
RASCOM-QAF 1R,2010-037B,2026-06-27T22:15:38.750112,1.00272276,.0006559,0.0245,74.3286,16.0400,162.4661,0,U,36831,999,5841,0,.3E-6,0
AEHF-1 (USA 214),2010-039A,2026-06-27T19:29:32.845344,1.00267274,.00042152,8.2456,67.9054,25.8797,144.5377,0,U,36868,999,5376,0,.151E-5,0
XM-5,2010-053A,2026-06-27T22:13:26.946048,1.00272225,.00025078,0.0667,270.6117,284.1303,299.4564,0,U,37185,999,5759,0,-.11E-6,0
BSAT-3B,2010-056B,2026-06-27T23:35:02.879808,1.00271848,.00020763,0.0715,242.4277,282.7421,214.5239,0,U,37207,999,5220,0,-.338E-5,0
BEIDOU-2 G4,2010-057A,2026-06-27T20:06:37.717056,1.00271534,.00047857,3.6733,68.8906,191.9862,116.7043,0,U,37210,999,5739,0,-.104E-5,0
SKYTERRA 1,2010-061A,2026-06-27T14:11:50.612928,1.00273002,.00024167,5.1467,50.8435,26.0816,310.4261,0,U,37218,999,5729,0,-.111E-5,0
HYLAS 1,2010-065A,2026-06-27T21:07:33.277728,1.00271746,.00011642,5.6699,72.8923,335.8001,197.9775,0,U,37237,999,699,0,.95E-6,0
INTELSAT 17 (IS-17),2010-065B,2026-06-27T22:32:01.491360,1.00268763,.00022946,0.0139,81.0663,19.9161,219.0613,0,U,37238,999,5335,0,.11E-6,0
BEIDOU-2 IGSO-2,2010-068A,2026-06-24T16:14:12.098688,1.00281062,.00560425,47.5326,271.7373,213.3814,139.3528,0,U,37256,999,5686,0,-.223E-5,0
EUTELSAT KA-SAT 9A,2010-069A,2026-06-27T12:32:59.093952,1.00269892,.00037527,0.0603,11.3939,121.0201,340.4613,0,U,37258,999,4411,0,.73E-6,0
HISPASAT 30W-5,2010-070A,2026-06-27T22:37:49.036224,1.00272960,.00057902,0.0372,121.2332,348.3137,115.9504,0,U,37264,999,5329,0,-.204E-5,0
KOREASAT 6,2010-070B,2026-06-27T15:08:18.229920,1.00270937,.00027264,0.0279,26.1185,81.1548,195.4197,0,U,37265,999,5687,0,0,0
BEIDOU-2 IGSO-3,2011-013A,2026-06-25T13:06:53.019936,1.00266124,.00350576,62.4191,40.0714,184.1159,353.6243,0,U,37384,999,5574,0,-.187E-5,0
INTELSAT 28 (IS-28),2011-016A,2026-06-27T22:37:19.083936,1.00271332,.00040464,1.8334,82.5008,13.4237,127.7170,0,U,37392,999,5339,0,-.215E-5,0
YAHSAT 1A,2011-016B,2026-06-27T22:16:09.268320,1.00269759,.0003675,0.0234,25.9586,85.7590,190.8473,0,U,37393,999,4251,0,0,0
SBIRS GEO-1 (USA 230),2011-019A,2026-06-26T05:57:19.404864,1.00272337,.0001915,4.5553,53.1191,36.2201,326.1667,0,U,37481,999,5549,0,.106E-5,0
TELSTAR 14R,2011-021A,2026-06-27T20:45:45.393408,1.00271236,.00024255,0.0453,80.6597,351.4672,92.2900,0,U,37602,999,5594,0,-.268E-5,0
GSAT-8,2011-022A,2026-06-27T21:19:25.454784,1.00273481,.00016298,2.1581,81.7037,183.2138,26.0072,0,U,37605,999,5332,0,.94E-6,0
ST-2,2011-022B,2026-06-27T21:28:47.058240,1.00271198,.00018444,0.0242,21.5897,85.5403,219.0796,0,U,37606,999,5538,0,0,0
ZHONGXING-10,2011-026A,2026-06-27T23:10:40.520928,1.00272865,.00038035,1.0750,84.0973,7.5138,257.6501,0,U,37677,999,5510,0,-.178E-5,0
SES-3,2011-035A,2026-06-27T14:13:05.532960,1.00272606,.00025113,1.3532,82.9909,0.9226,302.0536,0,U,37748,999,5469,0,-.92E-6,0
KAZSAT-2,2011-035B,2026-06-27T14:37:43.239936,1.00270313,.00018818,0.0023,93.7625,55.6302,72.2489,0,U,37749,999,5350,0,-.186E-5,0
BEIDOU-2 IGSO-4,2011-038A,2026-06-26T22:33:21.661920,1.00284005,.0159658,54.6031,165.5857,231.4756,310.1226,0,U,37763,999,5474,0,.24E-6,0
ASTRA 1N,2011-041A,2026-06-27T21:09:10.622016,1.00270950,.00059585,0.0828,38.9654,56.8105,156.6796,0,U,37775,999,4463,0,.131E-5,0
BSAT-3C (JCSAT-110R),2011-041B,2026-06-27T23:35:02.863392,1.00271506,.00004502,0.0196,330.6106,169.8369,239.3572,0,U,37776,999,5057,0,-.339E-5,0
