BEIDOU-2 G3             
1 36590U 10024A   26178.79376176 -.00000128  00000+0  00000+0 0  9990
2 36590   4.5411  61.4761 0008079 356.1937 223.6638  1.00271281 58873
BADR-5                  
1 36592U 10025A   26178.95491339  .00000165  00000+0  00000+0 0  9990
2 36592   0.0498 135.0054 0003991  52.6673 102.6636  1.00267978 53324
COMS 1                  
1 36744U 10032A   26178.95482672  .00000021  00000+0  00000+0 0  9998
2 36744   4.8320  75.2315 0011907  13.2513 201.8321  0.99167183 51196
ARABSAT-5A              
1 36745U 10032B   26178.95491339  .00000165  00000+0  00000+0 0  9998
2 36745   0.0730  53.8100 0005649  59.6694 176.8292  1.00272376 58755
ECHOSTAR 15             
1 36792U 10034A   26178.64016098  .00000011  00000+0  00000+0 0  9993
2 36792   0.0112  28.2558 0002226  54.2545 304.8825  1.00272536 58425
BEIDOU-2 IGSO-1         
1 36828U 10036A   26177.90040617 -.00000057  00000+0  00000+0 0  9998
2 36828  54.3050 162.8716 0059014 225.3100 318.5305  1.00269877 58197
NILESAT 201             
1 36830U 10037A   26178.94743535 -.00000046  00000+0  00000+0 0  9994
2 36830   0.0378 126.9381 0005254 354.4856 128.7040  1.00271550 58489
RASCOM-QAF 1R           
1 36831U 10037B   26178.92753183  .00000030  00000+0  00000+0 0  9995
2 36831   0.0245  74.3286 0006559  16.0400 162.4661  1.00272276 58411
AEHF-1 (USA 214)        
1 36868U 10039A   26178.81218571  .00000151  00000+0  00000+0 0  9996
2 36868   8.2456  67.9054 0004215  25.8797 144.5377  1.00267274 53760
XM-5                    
1 37185U 10053A   26178.92600632 -.00000011  00000+0  00000+0 0  9996
2 37185   0.0667 270.6117 0002507 284.1303 299.4564  1.00272225 57590
BSAT-3B                 
1 37207U 10056B   26178.98267222 -.00000338  00000+0  00000+0 0  9996
2 37207   0.0715 242.4277 0002076 282.7421 214.5239  1.00271848 52209
BEIDOU-2 G4             
1 37210U 10057A   26178.83793654 -.00000104  00000+0  00000+0 0  9999
2 37210   3.6733  68.8906 0004785 191.9862 116.7043  1.00271534 57393
SKYTERRA 1              
1 37218U 10061A   26178.59155802 -.00000111  00000+0  00000+0 0  9990
2 37218   5.1467  50.8435 0002416  26.0816 310.4261  1.00273002 57292
HYLAS 1                 
1 37237U 10065A   26178.88024627  .00000095  00000+0  00000+0 0  9997
2 37237   5.6699  72.8923 0001164 335.8001 197.9775  1.00271746  6999
INTELSAT 17 (IS-17)     
1 37238U 10065B   26178.93890615  .00000011  00000+0  00000+0 0  9990
2 37238   0.0139  81.0663 0002294  19.9161 219.0613  1.00268763 53357
BEIDOU-2 IGSO-2         
1 37256U 10068A   26175.67652892 -.00000223  00000+0  00000+0 0  9990
2 37256  47.5326 271.7373 0056042 213.3814 139.3528  1.00281062 56867
EUTELSAT KA-SAT 9A      
1 37258U 10069A   26178.52290618  .00000073  00000+0  00000+0 0  9996
2 37258   0.0603  11.3939 0003752 121.0201 340.4613  1.00269892 44114
HISPASAT 30W-5          
1 37264U 10070A   26178.94292866 -.00000204  00000+0  00000+0 0  9995
2 37264   0.0372 121.2332 0005790 348.3137 115.9504  1.00272960 53291
KOREASAT 6              
1 37265U 10070B   26178.63076655  .00000000  00000+0  00000+0 0  9991
2 37265   0.0279  26.1185 0002726  81.1548 195.4197  1.00270937 56871
BEIDOU-2 IGSO-3         
1 37384U 11013A   26176.54644699 -.00000187  00000+0  00000+0 0  9995
2 37384  62.4191  40.0714 0035057 184.1159 353.6243  1.00266124 55744
INTELSAT 28 (IS-28)     
1 37392U 11016A   26178.94258199 -.00000215  00000+0  00000+0 0  9991
2 37392   1.8334  82.5008 0004046  13.4237 127.7170  1.00271332 53396
YAHSAT 1A               
1 37393U 11016B   26178.92788505  .00000000  00000+0  00000+0 0  9990
2 37393   0.0234  25.9586 0003675  85.7590 190.8473  1.00269759 42519
SBIRS GEO-1 (USA 230)   
1 37481U 11019A   26177.24814126  .00000106  00000+0  00000+0 0  9991
2 37481   4.5553  53.1191 0001915  36.2201 326.1667  1.00272337 55496
TELSTAR 14R             
1 37602U 11021A   26178.86510872 -.00000268  00000+0  00000+0 0  9999
2 37602   0.0453  80.6597 0002425 351.4672  92.2900  1.00271236 55945
GSAT-8                  
1 37605U 11022A   26178.88848906  .00000094  00000+0  00000+0 0  9993
2 37605   2.1581  81.7037 0001629 183.2138  26.0072  1.00273481 53326
ST-2                    
1 37606U 11022B   26178.89498910  .00000000  00000+0  00000+0 0  9998
2 37606   0.0242  21.5897 0001844  85.5403 219.0796  1.00271198 55380
ZHONGXING-10            
1 37677U 11026A   26178.96574677 -.00000178  00000+0  00000+0 0  9990
2 37677   1.0750  84.0973 0003803   7.5138 257.6501  1.00272865 55102
SES-3                   
1 37748U 11035A   26178.59242515 -.00000092  00000+0  00000+0 0  9996
2 37748   1.3532  82.9909 0002511   0.9226 302.0536  1.00272606 54697
KAZSAT-2                
1 37749U 11035B   26178.60952824 -.00000186  00000+0  00000+0 0  9994
2 37749   0.0023  93.7625 0001881  55.6302  72.2489  1.00270313 53500
BEIDOU-2 IGSO-4         
1 37763U 11038A   26177.93983405  .00000024  00000+0  00000+0 0  9997
2 37763  54.6031 165.5857 0159658 231.4756 310.1226  1.00284005 54741
ASTRA 1N                
1 37775U 11041A   26178.88137294  .00000131  00000+0  00000+0 0  9995
2 37775   0.0828  38.9654 0005958  56.8105 156.6796  1.00270950 44637
BSAT-3C (JCSAT-110R)    
1 37776U 11041B   26178.98267203 -.00000339  00000+0  00000+0 0  9992
2 37776   0.0196 330.6106 0000450 169.8369 239.3572  1.00271506 50578
